OBJECT_NAME,OBJECT_ID,EPOCH,MEAN_MOTION,ECCENTRICITY,INCLINATION,RA_OF_ASC_NODE,ARG_OF_PERICENTER,MEAN_ANOMALY,EPHEMERIS_TYPE,CLASSIFICATION_TYPE,NORAD_CAT_ID,ELEMENT_SET_NO,REV_AT_EPOCH,BSTAR,MEAN_MOTION_DOT,MEAN_MOTION_DDOT
STARLINK-2666,2021-044AE,2025-10-31T07:02:00.771936,15.06403788,.00014655,53.0561,332.9716,86.3750,273.7407,0,U,48666,999,24433,.60547658E-3,.8749E-4,0
STARLINK-2735,2021-044AF,2025-10-31T06:19:27.782400,15.06411632,.00016878,53.0568,332.6344,99.0564,261.0616,0,U,48667,999,24434,.29425637E-3,.4105E-4,0
STARLINK-2738,2021-044AG,2025-10-31T06:14:09.052800,15.06406578,.00014207,53.0552,332.6510,100.6614,259.4535,0,U,48668,999,24434,.7396922E-3,.10755E-3,0
STARLINK-2707,2021-044AH,2025-10-31T06:08:50.413920,15.06403575,.00016451,53.0560,332.6731,106.7528,253.3642,0,U,48669,999,24433,.27630388E-3,.3837E-4,0
STARLINK-2763,2021-044AJ,2025-10-31T06:03:30.549888,15.06431004,.00014453,53.0557,332.6824,93.9049,266.2105,0,U,48670,999,24433,.29790376E-3,.4162E-4,0
STARLINK-2745,2021-044AK,2025-10-31T06:40:45.975360,15.06422521,.000137,53.0542,332.8786,98.3449,261.7696,0,U,48671,999,24433,.90372282E-3,.13213E-3,0
STARLINK-2705,2021-044AL,2025-10-31T07:28:28.525728,15.06428855,.00015644,53.0560,332.4195,102.5887,257.5277,0,U,48672,999,24434,.87917047E-3,.12848E-3,0
STARLINK-2711,2021-044AM,2025-10-31T07:23:08.954592,15.06405229,.00014407,53.0546,332.4363,85.9833,274.1321,0,U,48673,999,24434,.25243647E-3,.3481E-4,0
STARLINK-2712,2021-044AN,2025-10-31T07:33:47.167200,15.06400163,.00013898,53.0556,332.5216,93.0681,267.0467,0,U,48674,999,24434,.24802584E-3,.3415E-4,0
STARLINK-2746,2021-044AQ,2025-10-31T07:07:14.060928,15.06402418,.00016443,53.0563,332.4831,105.6676,254.4494,0,U,48676,999,24434,.59520347E-3,.8596E-4,0
STARLINK-2615,2021-044AS,2025-10-31T06:56:36.803904,15.06405910,.00015108,53.0557,332.5164,106.2041,253.9114,0,U,48678,999,24434,.26567476E-3,.3679E-4,0
STARLINK-2648,2021-044AT,2025-10-31T06:51:18.408672,15.06403756,.00014764,53.0556,332.5339,86.0486,274.0672,0,U,48679,999,24434,.10194205E-3,.1237E-4,0
STARLINK-2725,2021-044AV,2025-10-31T03:33:38.041344,15.06409665,.00017161,53.0546,303.3914,99.3434,260.7749,0,U,48681,999,24473,.34717574E-3,.4895E-4,0
STARLINK-2743,2021-044AW,2025-10-31T06:40:43.622688,15.06444180,.00014797,53.0553,292.7316,87.3572,272.7586,0,U,48682,999,24489,.16041814E-2,.23722E-3,0
STARLINK-2756,2021-044AX,2025-10-31T05:36:59.995872,15.06405403,.00014727,53.0547,292.7793,65.3335,294.7807,0,U,48683,999,24489,-.5558333E-5,-.364E-5,0
STARLINK-2741,2021-044AY,2025-10-31T06:09:33.879168,15.06404978,.00015279,53.0560,308.0284,102.6013,257.5147,0,U,48684,999,24468,.31546717E-4,.188E-5,0
STARLINK-2751,2021-044AZ,2025-10-31T03:19:01.470144,15.06386515,.00017389,53.0553,293.2461,110.9615,249.1560,0,U,48685,999,24488,.15627186E-4,-.49E-6,0
STARLINK-2629,2021-044BA,2025-10-31T06:21:30.103200,15.06408824,.0001576,53.0550,297.9101,88.6843,271.4327,0,U,48686,999,24482,.17044568E-3,.2259E-4,0
STARLINK-2627,2021-044BB,2025-10-31T05:45:37.042848,15.06412752,.00014642,53.0543,287.7434,94.3669,265.7487,0,U,48687,999,24496,.30420649E-3,.4254E-4,0
STARLINK-2742,2021-044BC,2025-10-31T05:50:54.981888,15.06409978,.00016063,53.0558,287.7252,98.6461,261.4710,0,U,48688,999,24496,.15815579E-3,.2076E-4,0
STARLINK-2740,2021-044BE,2025-10-31T06:07:31.339776,15.06399270,.00013605,53.0548,302.6747,91.8537,268.2608,0,U,48690,999,24475,.85385681E-4,.991E-5,0
STARLINK-2750,2021-044BF,2025-10-31T07:03:54.105408,15.06407051,.00017203,53.0564,297.4979,107.0204,253.0974,0,U,48691,999,24483,.16211294E-3,.2134E-4,0
STARLINK-2752,2021-044BG,2025-10-31T06:42:41.710752,15.06406531,.00015444,53.0550,297.6885,86.4363,273.6802,0,U,48692,999,24483,.12513321E-3,.1583E-4,0
STARLINK-2618,2021-044BH,2025-10-31T06:53:55.412160,15.06405280,.00018642,53.0545,302.5272,97.8702,262.2499,0,U,48693,999,24476,.15490297E-3,.2027E-4,0
STARLINK-2748,2021-044BJ,2025-10-31T06:08:07.803168,15.06397711,.00022181,53.0549,307.6589,142.0782,218.0364,0,U,48694,999,24468,-.13739212E-3,-.2328E-4,0
STARLINK-2616,2021-044BK,2025-10-31T06:41:21.713856,15.06411256,.00015164,53.0560,307.6166,117.4394,242.6749,0,U,48695,999,24469,.13371719E-3,.1711E-4,0
STARLINK-2753,2021-044BL,2025-10-31T06:27:26.707968,15.06387801,.00014531,53.0547,312.6571,92.5858,267.5297,0,U,48696,999,24462,.24813009E-3,.3415E-4,0
STARLINK-3004,2021-059B,2025-10-31T07:35:56.386176,15.01263465,.00015387,97.6586,67.6802,203.1498,156.9657,0,U,48880,999,23939,.1730823E-3,.2165E-4,0
STARLINK-3005,2021-059C,2025-10-31T07:26:21.049440,15.01263960,.00025571,97.6617,67.6270,202.9721,157.1389,0,U,48881,999,23939,.61564564E-4,.732E-5,0
STARLINK-3096,2021-082B,2025-10-31T04:16:46.562880,14.98303377,.00028439,69.9999,220.9871,278.9370,81.1467,0,U,49131,999,22756,-.2567748E-3,-.3153E-4,0
STARLINK-3090,2021-082C,2025-10-31T06:11:34.019232,14.98334743,.00029727,69.9987,260.6677,274.1683,85.9137,0,U,49132,999,22659,.9846145E-4,.1082E-4,0
STARLINK-3077,2021-082D,2025-10-31T06:35:36.110400,14.98321701,.00031131,69.9988,260.7516,268.5232,91.5570,0,U,49133,999,22659,-.12926127E-3,-.1635E-4,0
STARLINK-3078,2021-082E,2025-10-31T06:29:35.287584,14.98337291,.00029258,69.9991,260.7669,269.6758,90.4065,0,U,49134,999,22779,.10461319E-4,.32E-6,0
STARLINK-3073,2021-082F,2025-10-31T04:10:43.326048,14.98334134,.00026676,69.9995,220.9899,267.2767,92.8087,0,U,49135,999,22757,.87068772E-4,.946E-5,0
STARLINK-3055,2021-082H,2025-10-31T05:31:11.829792,14.97526776,.00030286,69.9993,241.2399,270.4388,89.6423,0,U,49137,999,22707,.72726056E-4,.758E-5,0
STARLINK-3058,2021-082J,2025-10-31T06:23:36.688704,14.98321263,.00028389,69.9989,260.7807,248.8278,111.2578,0,U,49138,999,22659,.36177717E-3,.4225E-4,0
STARLINK-3057,2021-082K,2025-10-31T03:58:42.644640,14.98335073,.00031529,69.9999,221.0185,273.8662,86.2136,0,U,49139,999,22756,-.10979836E-4,-.224E-5,0
STARLINK-3093,2021-082M,2025-10-31T06:17:34.191456,14.98325713,.00024179,69.9988,260.7946,267.7163,92.3719,0,U,49141,999,22779,.1886404E-3,.2158E-4,0
STARLINK-3109,2021-082P,2025-10-31T05:25:21.910656,14.97526389,.00028008,69.9994,241.2548,275.2901,84.7938,0,U,49143,999,22818,.16277097E-3,.181E-4,0
STARLINK-3100,2021-082Q,2025-10-31T06:05:33.503136,14.98329984,.00027022,69.9994,260.7952,267.8142,92.2708,0,U,49144,999,22659,-.6062876E-5,-.165E-5,0
STARLINK-3119,2021-082R,2025-10-31T03:16:39.041472,14.98337015,.00026022,70.0003,221.0869,258.4057,101.6810,0,U,49145,999,22755,-.93999243E-4,-.1215E-4,0
STARLINK-3116,2021-082S,2025-10-31T05:19:21.309888,14.97526180,.00025814,69.9994,241.2691,258.3585,101.7284,0,U,49146,999,22822,.10772949E-4,.34E-6,0
STARLINK-3071,2021-082T,2025-10-31T03:34:40.667520,14.98331770,.00025327,69.9999,221.0730,278.3391,81.7481,0,U,49147,999,22756,.62789138E-4,.656E-5,0
STARLINK-3048,2021-082U,2025-10-31T05:07:19.386048,14.97530626,.00027636,69.9996,241.2689,271.7083,88.3759,0,U,49148,999,22706,.71574398E-4,.744E-5,0
STARLINK-3102,2021-082X,2025-10-31T03:04:38.976096,14.98327133,.00026131,70.0000,221.1154,276.3054,83.7808,0,U,49151,999,22875,-.10111104E-4,-.214E-5,0
STARLINK-3072,2021-082Z,2025-10-31T04:28:44.989248,14.98334211,.00025386,70.0000,220.9747,269.4012,90.6857,0,U,49153,999,22877,.55316505E-4,.567E-5,0
STARLINK-3068,2021-082AA,2025-10-31T03:25:08.022144,14.97528368,.00027012,69.9995,241.4507,268.9997,91.0852,0,U,49154,999,22813,.43800644E-4,.42E-5,0
STARLINK-3060,2021-082AB,2025-10-31T04:22:44.868000,14.98325040,.0002374,70.0005,220.9789,257.4574,102.6320,0,U,49155,999,22864,-.56484589E-4,-.767E-5,0
STARLINK-3085,2021-082AC,2025-10-31T03:52:42.013632,14.98324198,.00025642,70.0000,221.0332,261.0545,99.0324,0,U,49156,999,22864,.21143355E-3,.243E-4,0
STARLINK-3051,2021-082AD,2025-10-31T05:31:00.468192,15.00852702,.00027071,69.9995,240.6000,269.9298,90.1552,0,U,49157,999,22818,.24715944E-2,.31538E-3,0
STARLINK-3083,2021-082AE,2025-10-31T00:51:33.813792,15.47837667,.00017348,69.9754,171.1671,330.7958,29.3129,0,U,49158,999,22988,.11289142E-2,.59154E-3,0
STARLINK-3056,2021-082AF,2025-10-31T07:23:39.849504,14.98337438,.00028537,69.9989,260.6679,272.2978,87.7854,0,U,49159,999,22769,.90560036E-4,.988E-5,0
STARLINK-3095,2021-082AG,2025-10-31T07:05:38.113728,14.98333443,.00029681,69.9986,260.6817,270.1514,89.9305,0,U,49160,999,22766,.34211384E-4,.315E-5,0
STARLINK-3080,2021-082AH,2025-10-31T07:11:38.398272,14.98336681,.00028336,69.9985,260.6679,268.1172,91.9663,0,U,49161,999,22767,.1169316E-3,.1303E-4,0
STARLINK-3088,2021-082AK,2025-10-31T06:19:27.876576,14.97530449,.00029257,69.9998,241.1567,270.9469,89.1355,0,U,49163,999,22823,.52478985E-4,.521E-5,0
STARLINK-3106,2021-082AL,2025-10-31T06:11:14.060832,14.98331875,.00026582,70.0018,240.7906,273.5910,86.4945,0,U,49164,999,22825,-.59666328E-4,-.805E-5,0
STARLINK-3052,2021-082AM,2025-10-31T06:59:37.858560,14.98333778,.00029556,69.9985,260.7244,270.4749,89.6071,0,U,49165,999,22779,.8704921E-4,.946E-5,0
STARLINK-3089,2021-082AN,2025-10-31T06:13:27.270624,14.97528770,.00027362,69.9997,241.1712,271.0750,89.0095,0,U,49166,999,22827,.1013968E-3,.1093E-4,0
STARLINK-3054,2021-082AP,2025-10-31T06:47:36.752064,14.98331769,.00027078,69.9988,260.7251,268.8964,91.1885,0,U,49167,999,22779,.12910755E-3,.1448E-4,0
STARLINK-3046,2021-082AR,2025-10-31T06:05:13.517088,14.98320928,.00024506,69.9994,240.8146,272.1986,87.8892,0,U,49169,999,22708,.57637114E-3,.6789E-4,0
STARLINK-3107,2021-082AT,2025-10-31T05:58:41.720736,15.04397967,.00021182,69.9960,259.0295,311.6323,48.4657,0,U,49171,999,22779,.2646082E-2,.37121E-3,0
STARLINK-3045,2021-082AV,2025-10-31T04:11:03.298272,14.98327916,.00029969,70.0006,240.9966,270.2920,89.7896,0,U,49173,999,22707,-.26518876E-3,-.3256E-4,0
STARLINK-3087,2021-082AX,2025-10-31T05:20:22.288416,14.97552886,.00030482,70.0004,241.3949,272.6956,87.3854,0,U,49175,999,22706,.23032882E-3,.2602E-4,0
